NORAD_CAT_ID,OBJECT_NAME,OBJECT_TYPE,EPOCH,MEAN_MOTION,ECCENTRICITY,INCLINATION,RA_OF_ASC_NODE,ARG_OF_PERICENTER,MEAN_ANOMALY,BSTAR,MEAN_MOTION_DOT,MEAN_MOTION_DDOT,TLE_LINE0,TLE_LINE1,TLE_LINE2,SEMIMAJOR_AXIS,PERIOD,APOGEE,PERIGEE,DECAYED
53630.0,STARLINK-4598,PAYLOAD,2024-05-26 14:50:38,15.0884044,0.0001306,53.2177,271.4591,81.4302,278.6839,-1.2039e-05,-4.79e-06,0.0,0 STARLINK-4598,1 53630U 22104AU  24147.61849916 -.00000479  00000-0 -12039-4 0  9999,2 53630  53.2177 271.4591 0001306  81.4302 278.6839 15.08840440 97622,6917.879,95.438,540.648,538.841,0.0
53630.0,STARLINK-4598,PAYLOAD,2024-05-27 14:41:25,15.08836273,0.0001178,53.2186,267.0015,61.7183,298.3928,0.00021564,3.145e-05,0.0,0 STARLINK-4598,1 53630U 22104AU  24148.61209537  .00003145  00000-0  21564-3 0  9992,2 53630  53.2186 267.0015 0001178  61.7183 298.3928 15.08836273 97772,6917.892,95.438,540.572,538.942,0.0
53630.0,STARLINK-4598,PAYLOAD,2024-05-27 17:52:11,15.0883996,0.000124,53.2183,266.3999,92.9981,267.1153,0.00016613,2.357e-05,0.0,0 STARLINK-4598,1 53630U 22104AU  24148.74457416  .00002357  00000-0  16613-3 0  9990,2 53630  53.2183 266.3999 0001240  92.9981 267.1153 15.08839960 96931,6917.881,95.438,540.603,538.888,0.0
53630.0,STARLINK-4598,PAYLOAD,2024-05-28 12:56:49,15.0883631,0.0001162,53.2178,262.8297,101.1401,258.9722,1.3972e-05,-6.5e-07,0.0,0 STARLINK-4598,1 53630U 22104AU  24149.53945955 -.00000065  00000-0  13972-4 0  9999,2 53630  53.2178 262.8297 0001162 101.1401 258.9722 15.08836310 97050,6917.892,95.438,540.561,538.953,0.0
53630.0,STARLINK-4598,PAYLOAD,2024-05-29 12:47:36,15.08832225,0.0001178,53.2174,258.369,93.9769,266.1358,-3.1323e-05,-7.86e-06,0.0,0 STARLINK-4598,1 53630U 22104AU  24150.53306140 -.00000786  00000-0 -31323-4 0  9999,2 53630  53.2174 258.3690 0001178  93.9769 266.1358 15.08832225 98064,6917.904,95.438,540.584,538.954,0.0
53630.0,STARLINK-4598,PAYLOAD,2024-05-30 12:38:23,15.0883817,0.0001145,53.2169,253.9121,99.5556,260.5566,0.0001227,1.665e-05,0.0,0 STARLINK-4598,1 53630U 22104AU  24151.52665652  .00001665  00000-0  12270-3 0  9999,2 53630  53.2169 253.9121 0001145  99.5556 260.5566 15.08838170 97353,6917.886,95.438,540.543,538.959,0.0
53630.0,STARLINK-4598,PAYLOAD,2024-05-30 14:13:46,15.0884065,0.000123,53.2168,253.6144,109.8751,250.2373,0.00014096,1.956e-05,0.0,0 STARLINK-4598,1 53630U 22104AU  24151.59289469  .00001956  00000-0  14096-3 0  9995,2 53630  53.2168 253.6144 0001230 109.8751 250.2373 15.08840650 98226,6917.878,95.438,540.594,538.893,0.0
53630.0,STARLINK-4598,PAYLOAD,2024-05-31 14:04:32,15.08843054,0.0001172,53.217,249.1534,81.0862,279.0263,0.00018977,2.734e-05,0.0,0 STARLINK-4598,1 53630U 22104AU  24152.58649288  .00002734  00000-0  18977-3 0  9991,2 53630  53.2170 249.1534 0001172  81.0862 279.0263 15.08843054 98375,6917.871,95.437,540.547,538.925,0.0
53630.0,STARLINK-4598,PAYLOAD,2024-05-31 15:39:56,15.08844411,0.0001176,53.2171,248.856,82.4504,277.6621,0.00020123,2.917e-05,0.0,0 STARLINK-4598,1 53630U 22104AU  24152.65273209  .00002917  00000-0  20123-3 0  9994,2 53630  53.2171 248.8560 0001176  82.4504 277.6621 15.08844411 97529,6917.867,95.437,540.545,538.918,0.0
53630.0,STARLINK-4598,PAYLOAD,2024-06-01 12:19:57,15.08830851,0.0001348,53.2162,244.9905,84.2841,275.8305,-0.00010759,-1.999e-05,0.0,0 STARLINK-4598,1 53630U 22104AU  24153.51386183 -.00001999  00000-0 -10759-3 0  9991,2 53630  53.2162 244.9905 0001348  84.2841 275.8305 15.08830851 97650,6917.908,95.438,540.706,538.841,0.0
53630.0,STARLINK-4598,PAYLOAD,2024-06-01 13:55:20,15.08832763,0.0001355,53.2163,244.6932,83.922,276.1926,-7.4617e-05,-1.475e-05,0.0,0 STARLINK-4598,1 53630U 22104AU  24153.58010122 -.00001475  00000-0 -74617-4 0  9998,2 53630  53.2163 244.6932 0001355  83.9220 276.1926 15.08832763 98527,6917.903,95.438,540.705,538.83,0.0
53630.0,STARLINK-4598,PAYLOAD,2024-06-01 23:27:39,15.08841764,0.0001322,53.2167,242.9093,84.7172,275.3971,8.875e-05,1.125e-05,0.0,0 STARLINK-4598,1 53630U 22104AU  24153.97753786  .00001125  00000-0  88750-4 0  9994,2 53630  53.2167 242.9093 0001322  84.7172 275.3971 15.08841764 97722,6917.875,95.437,540.655,538.825,0.0
53630.0,STARLINK-4598,PAYLOAD,2024-06-02 12:10:44,15.08843517,0.0001421,53.2172,240.5303,90.1526,269.9629,0.00015575,2.192e-05,0.0,0 STARLINK-4598,1 53630U 22104AU  24154.50745925  .00002192  00000-0  15575-3 0  9999,2 53630  53.2172 240.5303 0001421  90.1526 269.9629 15.08843517 98661,6917.87,95.437,540.718,538.752,0.0
53630.0,STARLINK-4598,PAYLOAD,2024-06-03 05:39:59,15.08842076,0.000157,53.2189,237.259,102.3611,257.7557,0.00038501,5.845e-05,0.0,0 STARLINK-4598,1 53630U 22104AU  24155.23610220  .00005845  00000-0  38501-3 0  9991,2 53630  53.2189 237.2590 0001570 102.3611 257.7557 15.08842076 97917,6917.874,95.437,540.825,538.653,0.0
53630.0,STARLINK-4598,PAYLOAD,2024-06-03 12:01:31,15.0884064,0.0001332,53.2166,236.0701,98.2842,261.8301,0.0001864,2.68e-05,0.0,0 STARLINK-4598,1 53630U 22104AU  24155.50106202  .00002680  00000-0  18640-3 0  9997,2 53630  53.2166 236.0701 0001332  98.2842 261.8301 15.08840640 98816,6917.878,95.438,540.665,538.822,0.0
53630.0,STARLINK-4598,PAYLOAD,2024-06-04 11:52:18,15.08843105,0.0001261,53.215,231.6104,85.8541,274.2596,0.00014967,2.095e-05,0.0,0 STARLINK-4598,1 53630U 22104AU  24156.49466165  .00002095  00000-0  14967-3 0  9991,2 53630  53.2150 231.6104 0001261  85.8541 274.2596 15.08843105 98101,6917.871,95.437,540.608,538.864,0.0
53630.0,STARLINK-4598,PAYLOAD,2024-06-04 21:24:36,15.08856904,0.0001516,53.2165,229.8239,89.8642,270.2524,0.00030575,4.584e-05,0.0,0 STARLINK-4598,1 53630U 22104AU  24156.89209365  .00004584  00000-0  30575-3 0  9990,2 53630  53.2165 229.8239 0001516  89.8642 270.2524 15.08856904 99024,6917.829,95.436,540.742,538.645,0.0
53630.0,STARLINK-4598,PAYLOAD,2024-06-05 11:43:05,15.08836048,0.0001459,53.2162,227.1512,95.7203,264.3956,2.331e-05,8.3e-07,0.0,0 STARLINK-4598,1 53630U 22104AU  24157.48826346  .00000083  00000-0  23310-4 0  9990,2 53630  53.2162 227.1512 0001459  95.7203 264.3956 15.08836048 98255,6917.892,95.438,540.767,538.748,0.0
53630.0,STARLINK-4598,PAYLOAD,2024-06-05 21:15:24,15.08847506,0.0001453,53.2165,225.3662,93.3924,266.7234,0.00023243,3.414e-05,0.0,0 STARLINK-4598,1 53630U 22104AU  24157.88569952  .00003414  00000-0  23243-3 0  9996,2 53630  53.2165 225.3662 0001453  93.3924 266.7234 15.08847506 99170,6917.857,95.437,540.728,538.717,0.0
53630.0,STARLINK-4598,PAYLOAD,2024-06-06 11:33:52,15.08844941,0.0001509,53.2154,222.6911,96.7335,263.3829,0.00019511,2.819e-05,0.0,0 STARLINK-4598,1 53630U 22104AU  24158.48186084  .00002819  00000-0  19511-3 0  9995,2 53630  53.2154 222.6911 0001509  96.7335 263.3829 15.08844941 99263,6917.865,95.437,540.774,538.686,0.0
53630.0,STARLINK-4598,PAYLOAD,2024-06-07 09:49:16,15.08838758,0.000129,53.215,218.529,103.5712,256.5424,9.7506e-05,1.264e-05,0.0,0 STARLINK-4598,1 53630U 22104AU  24159.40922338  .00001264  00000-0  97506-4 0  9992,2 53630  53.2150 218.5290 0001290 103.5712 256.5424 15.08838758 98540,6917.884,95.438,540.642,538.857,0.0
53630.0,STARLINK-4598,PAYLOAD,2024-06-07 13:00:03,15.08838493,0.0001343,53.2152,217.934,103.7558,256.3584,0.00013237,1.819e-05,0.0,0 STARLINK-4598,1 53630U 22104AU  24159.54170482  .00001819  00000-0  13237-3 0  9996,2 53630  53.2152 217.9340 0001343 103.7558 256.3584 15.08838493 99429,6917.885,95.438,540.679,538.821,0.0
53630.0,STARLINK-4598,PAYLOAD,2024-06-07 20:56:58,15.08841984,0.0001274,53.2139,216.445,90.3163,269.7975,0.00037504,5.686e-05,0.0,0 STARLINK-4598,1 53630U 22104AU  24159.87290453  .00005686  00000-0  37504-3 0  9992,2 53630  53.2139 216.4450 0001274  90.3163 269.7975 15.08841984 99472,6917.874,95.437,540.621,538.858,0.0
53630.0,STARLINK-4598,PAYLOAD,2024-06-08 11:15:27,15.08839815,0.0001349,53.2149,213.7676,82.5385,277.5761,6.2621e-06,-1.88e-06,0.0,0 STARLINK-4598,1 53630U 22104AU  24160.46906448 -.00000188  00000-0  62621-5 0  9990,2 53630  53.2149 213.7676 0001349  82.5385 277.5761 15.08839815 99565,6917.881,95.438,540.679,538.813,0.0
53630.0,STARLINK-4598,PAYLOAD,2024-06-08 20:47:45,15.08853158,0.0001494,53.216,211.9796,78.5886,281.5274,4.6935e-05,4.59e-06,0.0,0 STARLINK-4598,1 53630U 22104AU  24160.86649483  .00000459  00000-0  46935-4 0  9996,2 53630  53.2160 211.9796 0001494  78.5886 281.5274 15.08853158 98764,6917.84,95.437,540.739,538.672,0.0
53630.0,STARLINK-4598,PAYLOAD,2024-06-09 12:41:37,15.0883699,0.000147,53.2151,209.0076,86.2311,273.8849,6.5888e-05,7.61e-06,0.0,0 STARLINK-4598,1 53630U 22104AU  24161.52890833  .00000761  00000-0  65888-4 0  9991,2 53630  53.2151 209.0076 0001470  86.2311 273.8849 15.08836990 98864,6917.89,95.438,540.772,538.738,0.0
53630.0,STARLINK-4598,PAYLOAD,2024-06-09 20:38:33,15.08844848,0.0001529,53.2152,207.523,83.0542,277.0624,0.00015758,2.221e-05,0.0,0 STARLINK-4598,1 53630U 22104AU  24161.86010561  .00002221  00000-0  15758-3 0  9993,2 53630  53.2152 207.5230 0001529  83.0542 277.0624 15.08844848 99775,6917.866,95.437,540.788,538.673,0.0
53630.0,STARLINK-4598,PAYLOAD,2024-06-10 09:21:38,15.08843079,0.0001519,53.215,205.1438,86.3346,273.782,0.00022032,3.22e-05,0.0,0 STARLINK-4598,1 53630U 22104AU  24162.39002752  .00003220  00000-0  22032-3 0  9998,2 53630  53.2150 205.1438 0001519  86.3346 273.7820 15.08843079 99859,6917.871,95.437,540.787,538.685,0.0
53630.0,STARLINK-4598,PAYLOAD,2024-06-11 09:12:25,15.08844762,0.0001477,53.2155,200.6834,86.7213,273.3948,0.00022808,3.344e-05,0.0,0 STARLINK-4598,1 53630U 22104AU  24163.38362712  .00003344  00000-0  22808-3 0  9991,2 53630  53.2155 200.6834 0001477  86.7213 273.3948 15.08844762100001,6917.866,95.437,540.753,538.709,0.0
53630.0,STARLINK-4598,PAYLOAD,2024-06-12 02:41:39,15.08840064,0.0001446,53.2155,197.4122,86.7595,273.3562,7.5856e-05,9.2e-06,0.0,0 STARLINK-4598,1 53630U 22104AU  24164.11226839  .00000920  00000-0  75856-4 0  9991,2 53630  53.2155 197.4122 0001446  86.7595 273.3562 15.08840064 99250,6917.88,95.438,540.746,538.745,0.0
